[{"OBJECT_NAME":"TRANSPORTER-15 OBJECT CX","OBJECT_ID":"2025-276CX","EPOCH":"2026-03-09T18:16:24.883104","MEAN_MOTION":15.19627935,"ECCENTRICITY":1.891e-5,"INCLINATION":97.4237,"RA_OF_ASC_NODE":144.0993,"ARG_OF_PERICENTER":69.686,"MEAN_ANOMALY":290.4395,"EPHEMERIS_TYPE":0,"CLASSIFICATION_TYPE":"U","NORAD_CAT_ID":66759,"ELEMENT_SET_NO":999,"REV_AT_EPOCH":1533,"BSTAR":0.00041936127,"MEAN_MOTION_DOT":8.872e-5,"MEAN_MOTION_DDOT":0},{"OBJECT_NAME":"COSMOS 397 DEB","OBJECT_ID":"1971-015F","EPOCH":"2026-03-09T14:07:56.812800","MEAN_MOTION":14.44057548,"ECCENTRICITY":0.0359355,"INCLINATION":65.7322,"RA_OF_ASC_NODE":253.6291,"ARG_OF_PERICENTER":256.9911,"MEAN_ANOMALY":99.0843,"EPHEMERIS_TYPE":0,"CLASSIFICATION_TYPE":"U","NORAD_CAT_ID":5012,"ELEMENT_SET_NO":999,"REV_AT_EPOCH":68609,"BSTAR":0.0017017,"MEAN_MOTION_DOT":0.00012865,"MEAN_MOTION_DDOT":0}]
